[{"OBJECT_NAME":"STARLINK-5623","OBJECT_ID":"2023-014Q","EPOCH":"2026-03-09T22:49:44.915520","MEAN_MOTION":14.98331029,"ECCENTRICITY":0.00031573,"INCLINATION":69.9995,"RA_OF_ASC_NODE":63.8374,"ARG_OF_PERICENTER":269.5921,"MEAN_ANOMALY":90.4876,"EPHEMERIS_TYPE":0,"CLASSIFICATION_TYPE":"U","NORAD_CAT_ID":55405,"ELEMENT_SET_NO":999,"REV_AT_EPOCH":17209,"BSTAR":3.3868751e-5,"MEAN_MOTION_DOT":3.11e-6,"MEAN_MOTION_DDOT":0},{"OBJECT_NAME":"OBJECT U","OBJECT_ID":"2017-042U","EPOCH":"2026-03-09T22:07:56.164512","MEAN_MOTION":15.00675308,"ECCENTRICITY":0.00148173,"INCLINATION":97.4238,"RA_OF_ASC_NODE":229.7372,"ARG_OF_PERICENTER":56.7191,"MEAN_ANOMALY":303.5451,"EPHEMERIS_TYPE":0,"CLASSIFICATION_TYPE":"U","NORAD_CAT_ID":42843,"ELEMENT_SET_NO":999,"REV_AT_EPOCH":47173,"BSTAR":0.00030670501,"MEAN_MOTION_DOT":3.834e-5,"MEAN_MOTION_DDOT":0}]
